NORAD_CAT_ID,OBJECT_NAME,OBJECT_TYPE,EPOCH,MEAN_MOTION,ECCENTRICITY,INCLINATION,RA_OF_ASC_NODE,ARG_OF_PERICENTER,MEAN_ANOMALY,BSTAR,MEAN_MOTION_DOT,MEAN_MOTION_DDOT,TLE_LINE0,TLE_LINE1,TLE_LINE2,SEMIMAJOR_AXIS,PERIOD,APOGEE,PERIGEE,DECAYED
52270.0,STARLINK-3804,PAYLOAD,2023-05-20 22:42:01,15.08850607,0.0001173,53.2176,24.9138,75.8758,284.2364,0.00012166,1.649e-05,0.0,0 STARLINK-3804,1 52270U 22041K   23140.94585208  .00001649  00000-0  12166-3 0  9995,2 52270  53.2176  24.9138 0001173  75.8758 284.2364 15.08850607 59813,6917.848,95.437,540.524,538.902,0.0
52270.0,STARLINK-3804,PAYLOAD,2023-05-21 22:32:49,15.0884147,0.0001119,53.2182,20.452,78.5979,281.5139,-1.0109e-05,-4.49e-06,0.0,0 STARLINK-3804,1 52270U 22041K   23141.93946247 -.00000449  00000-0 -10109-4 0  9994,2 52270  53.2182  20.4520 0001119  78.5979 281.5139 15.08841470 59965,6917.876,95.437,540.515,538.967,0.0
52270.0,STARLINK-3804,PAYLOAD,2023-05-22 01:43:36,15.08836605,0.0001076,53.2187,19.8561,94.6601,265.4514,-7.3343e-05,-1.455e-05,0.0,0 STARLINK-3804,1 52270U 22041K   23142.07194720 -.00001455  00000-0 -73343-4 0  9998,2 52270  53.2187  19.8561 0001076  94.6601 265.4514 15.08836605 61190,6917.891,95.438,540.5,539.011,0.0
52270.0,STARLINK-3804,PAYLOAD,2023-05-22 19:12:50,15.08847542,0.0001015,53.2181,16.5879,80.7991,279.3116,-1.1043e-05,-4.64e-06,0.0,0 STARLINK-3804,1 52270U 22041K   23142.80057873 -.00000464  00000-0 -11043-4 0  9994,2 52270  53.2181  16.5879 0001015  80.7991 279.3116 15.08847542 60093,6917.857,95.437,540.424,539.02,0.0
52270.0,STARLINK-3804,PAYLOAD,2023-05-23 22:14:24,15.08830086,9.76e-05,53.2183,11.5328,85.8506,274.2598,3.7597e-05,3.11e-06,0.0,0 STARLINK-3804,1 52270U 22041K   23143.92667102  .00000311  00000-0  37597-4 0  9991,2 52270  53.2183  11.5328 0000976  85.8506 274.2598 15.08830086 60264,6917.911,95.438,540.451,539.101,0.0
52270.0,STARLINK-3804,PAYLOAD,2023-05-24 15:43:39,15.08830689,9.62e-05,53.2184,8.2616,85.3645,274.7457,3.1739e-05,2.17e-06,0.0,0 STARLINK-3804,1 52270U 22041K   23144.65531342  .00000217  00000-0  31739-4 0  9995,2 52270  53.2184   8.2616 0000962  85.3645 274.7457 15.08830689 60372,6917.909,95.438,540.439,539.108,0.0
52270.0,STARLINK-3804,PAYLOAD,2023-05-25 18:45:12,15.0883496,0.0001101,53.2188,3.2088,99.9374,260.1742,8.2317e-05,1.022e-05,0.0,0 STARLINK-3804,1 52270U 22041K   23145.78139231  .00001022  00000-0  82317-4 0  9994,2 52270  53.2188   3.2088 0001101  99.9374 260.1742 15.08834960 61755,6917.896,95.438,540.522,538.999,0.0
52270.0,STARLINK-3804,PAYLOAD,2023-05-25 21:55:58,15.08837436,0.0001089,53.2186,2.6141,99.183,260.9285,0.00010097,1.319e-05,0.0,0 STARLINK-3804,1 52270U 22041K   23145.91387050  .00001319  00000-0  10097-3 0  9997,2 52270  53.2186   2.6141 0001089  99.1830 260.9285 15.08837436 60569,6917.888,95.438,540.507,539.0,0.0
52270.0,STARLINK-3804,PAYLOAD,2023-05-25 23:31:21,15.08839669,0.0001126,53.2187,2.317,101.7134,258.3985,0.00011869,1.602e-05,0.0,0 STARLINK-3804,1 52270U 22041K   23145.98010868  .00001602  00000-0  11869-3 0  9997,2 52270  53.2187   2.3170 0001126 101.7134 258.3985 15.08839669 60577,6917.881,95.438,540.525,538.967,0.0
52270.0,STARLINK-3804,PAYLOAD,2023-05-26 21:46:45,15.08839451,0.0001095,53.2182,358.1509,86.8156,273.2962,2.2179e-05,6.5e-07,0.0,0 STARLINK-3804,1 52270U 22041K   23146.90747369  .00000065  00000-0  22179-4 0  9992,2 52270  53.2182 358.1509 0001095  86.8156 273.2962 15.08839451 60718,6917.882,95.438,540.505,538.99,0.0
52270.0,STARLINK-3804,PAYLOAD,2023-05-26 23:22:08,15.0884272,0.0001124,53.2183,357.8531,81.2221,278.8899,2.3555e-05,8.7e-07,0.0,0 STARLINK-3804,1 52270U 22041K   23146.97371188  .00000087  00000-0  23555-4 0  9994,2 52270  53.2183 357.8531 0001124  81.2221 278.8899 15.08842720 61933,6917.872,95.437,540.515,538.96,0.0
52270.0,STARLINK-3804,PAYLOAD,2023-05-27 07:19:04,15.08860161,0.0001135,53.2186,356.3639,68.011,292.1003,-0.00031324,-5.272e-05,0.0,0 STARLINK-3804,1 52270U 22041K   23147.30490879 -.00005272  00000-0 -31324-3 0  9996,2 52270  53.2186 356.3639 0001135  68.0110 292.1003 15.08860161 61981,6917.819,95.436,540.469,538.899,0.0
52270.0,STARLINK-3804,PAYLOAD,2023-05-27 20:02:09,15.08841534,0.0001034,53.2179,353.983,105.2891,254.8215,-1.1068e-05,-4.64e-06,0.0,0 STARLINK-3804,1 52270U 22041K   23147.83483308 -.00000464  00000-0 -11068-4 0  9995,2 52270  53.2179 353.9830 0001034 105.2891 254.8215 15.08841534 62060,6917.876,95.437,540.456,539.025,0.0
52270.0,STARLINK-3804,PAYLOAD,2023-05-28 19:52:56,15.08847515,0.0001035,53.2181,349.5243,95.1849,264.9261,8.4935e-05,1.064e-05,0.0,0 STARLINK-3804,1 52270U 22041K   23148.82842620  .00001064  00000-0  84935-4 0  9999,2 52270  53.2181 349.5243 0001035  95.1849 264.9261 15.08847515 61004,6917.857,95.437,540.438,539.006,0.0
52270.0,STARLINK-3804,PAYLOAD,2023-05-28 23:03:42,15.08848487,0.000105,53.2179,348.9295,95.0427,265.0685,9.3351e-05,1.199e-05,0.0,0 STARLINK-3804,1 52270U 22041K   23148.96090480  .00001199  00000-0  93351-4 0  9994,2 52270  53.2179 348.9295 0001050  95.0427 265.0685 15.08848487 62236,6917.854,95.437,540.446,538.993,0.0
52270.0,STARLINK-3804,PAYLOAD,2023-05-29 13:22:11,15.08836803,0.0001318,53.2177,346.252,100.2614,259.8526,1.7132e-05,-1.5e-07,0.0,0 STARLINK-3804,1 52270U 22041K   23149.55707505 -.00000015  00000-0  17132-4 0  9993,2 52270  53.2177 346.2520 0001318 100.2614 259.8526 15.08836803 61110,6917.89,95.438,540.667,538.843,0.0
52270.0,STARLINK-3804,PAYLOAD,2023-05-29 16:32:57,15.08836777,0.0001231,53.2171,345.6572,104.787,255.3258,2.9009e-05,1.74e-06,0.0,0 STARLINK-3804,1 52270U 22041K   23149.68955577  .00000174  00000-0  29009-4 0  9992,2 52270  53.2171 345.6572 0001231 104.7870 255.3258 15.08836777 62340,6917.89,95.438,540.607,538.904,0.0
52270.0,STARLINK-3804,PAYLOAD,2023-05-29 19:43:43,15.08837818,0.000104,53.2186,345.0662,80.7708,279.3401,8.0152e-06,-1.6e-06,0.0,0 STARLINK-3804,1 52270U 22041K   23149.82203582 -.00000160  00000-0  80152-5 0  9993,2 52270  53.2186 345.0662 0001040  80.7708 279.3401 15.08837818 61152,6917.887,95.438,540.472,539.033,0.0
52270.0,STARLINK-3804,PAYLOAD,2023-05-30 13:12:58,15.08843522,0.000101,53.218,341.7952,74.804,285.3064,-2.1253e-05,-6.26e-06,0.0,0 STARLINK-3804,1 52270U 22041K   23150.55067396 -.00000626  00000-0 -21253-4 0  9990,2 52270  53.2180 341.7952 0001010  74.8040 285.3064 15.08843522 61264,6917.87,95.437,540.433,539.036,0.0
52270.0,STARLINK-3804,PAYLOAD,2023-05-30 19:34:29,15.0885301,0.0001063,53.2179,340.6062,75.3268,284.7842,5.9779e-05,6.64e-06,0.0,0 STARLINK-3804,1 52270U 22041K   23150.81562445  .00000664  00000-0  59779-4 0  9998,2 52270  53.2179 340.6062 0001063  75.3268 284.7842 15.08853010 61303,6917.841,95.437,540.441,538.97,0.0
52270.0,STARLINK-3804,PAYLOAD,2023-05-31 05:06:49,15.0884663,0.0001059,53.2175,338.8215,72.3411,287.7696,-9.7894e-06,-4.44e-06,0.0,0 STARLINK-3804,1 52270U 22041K   23151.21306847 -.00000444  00000-0 -97894-5 0  9994,2 52270  53.2175 338.8215 0001059  72.3411 287.7696 15.08846630 62570,6917.86,95.437,540.458,538.993,0.0
52270.0,STARLINK-3804,PAYLOAD,2023-05-31 13:03:45,15.08831869,0.0001294,53.2189,337.3381,79.8796,280.2342,3.1392e-05,2.12e-06,0.0,0 STARLINK-3804,1 52270U 22041K   23151.54428059  .00000212  00000-0  31392-4 0  9991,2 52270  53.2189 337.3381 0001294  79.8796 280.2342 15.08831869 61418,6917.905,95.438,540.665,538.875,0.0
52270.0,STARLINK-3804,PAYLOAD,2023-05-31 17:49:55,15.0883265,0.0001187,53.2178,336.4433,81.6768,278.4359,2.004e-05,3.1e-07,0.0,0 STARLINK-3804,1 52270U 22041K   23151.74299936  .00000031  00000-0  20040-4 0  9990,2 52270  53.2178 336.4433 0001187  81.6768 278.4359 15.08832650 62658,6917.903,95.438,540.589,538.947,0.0
52270.0,STARLINK-3804,PAYLOAD,2023-06-01 04:57:36,15.08838074,0.0001212,53.2178,334.3629,73.9087,286.2038,3.3916e-05,2.52e-06,0.0,0 STARLINK-3804,1 52270U 22041K   23152.20667705  .00000252  00000-0  33916-4 0  9996,2 52270  53.2178 334.3629 0001212  73.9087 286.2038 15.08838074 61510,6917.886,95.438,540.59,538.913,0.0
52270.0,STARLINK-3804,PAYLOAD,2023-06-01 22:26:50,15.08848544,0.0001194,53.2171,331.091,86.3471,273.7658,1.2178e-05,-9.4e-07,0.0,0 STARLINK-3804,1 52270U 22041K   23152.93531064 -.00000094  00000-0  12178-4 0  9996,2 52270  53.2171 331.0910 0001194  86.3471 273.7658 15.08848544 62832,6917.854,95.437,540.545,538.893,0.0
52270.0,STARLINK-3804,PAYLOAD,2023-06-02 11:09:56,15.08830206,0.000136,53.2163,328.7114,95.5336,264.5811,4.7515e-05,4.68e-06,0.0,0 STARLINK-3804,1 52270U 22041K   23153.46524230  .00000468  00000-0  47515-4 0  9999,2 52270  53.2163 328.7114 0001360  95.5336 264.5811 15.08830206 62913,6917.91,95.438,540.716,538.834,0.0
52270.0,STARLINK-3804,PAYLOAD,2023-06-02 19:06:52,15.08852009,0.0001251,53.2176,327.224,95.6344,264.4791,-0.00018769,-3.275e-05,0.0,0 STARLINK-3804,1 52270U 22041K   23153.79643671 -.00003275  00000-0 -18769-3 0  9995,2 52270  53.2176 327.2240 0001251  95.6344 264.4791 15.08852009 62966,6917.844,95.437,540.574,538.843,0.0
52270.0,STARLINK-3804,PAYLOAD,2023-06-02 22:17:38,15.0883702,0.0001141,53.2174,326.6303,94.1461,265.9661,5.3301e-05,5.61e-06,0.0,0 STARLINK-3804,1 52270U 22041K   23153.92891969  .00000561  00000-0  53301-4 0  9990,2 52270  53.2174 326.6303 0001141  94.1461 265.9661 15.08837020 62989,6917.889,95.438,540.544,538.965,0.0
52270.0,STARLINK-3804,PAYLOAD,2023-06-03 11:00:44,15.08831354,9.74e-05,53.2178,324.2508,92.9427,267.1677,6.6124e-05,7.65e-06,0.0,0 STARLINK-3804,1 52270U 22041K   23154.45884404  .00000765  00000-0  66124-4 0  9998,2 52270  53.2178 324.2508 0000974  92.9427 267.1677 15.08831354 61855,6917.907,95.438,540.446,539.098,0.0
52270.0,STARLINK-3804,PAYLOAD,2023-06-03 18:57:39,15.08844016,0.000108,53.2176,322.7644,95.2327,264.8788,4.7978e-05,4.76e-06,0.0,0 STARLINK-3804,1 52270U 22041K   23154.79003728  .00000476  00000-0  47978-4 0  9992,2 52270  53.2176 322.7644 0001080  95.2327 264.8788 15.08844016 61903,6917.868,95.437,540.48,538.986,0.0
